{"fetched_at":"2026-03-30T13:17:50Z","count":15418,"tles":[{"name":"STARLINK-30984","line1":"1 58480U 23186H   26087.93423850  .00001799  00000+0  74860-4 0  9996","line2":"2 58480  43.0024 314.5975 0001305 277.0371  83.0332 15.27586907128842","category":"Starlink"}]}